NORAD_CAT_ID,OBJECT_NAME,OBJECT_TYPE,EPOCH,MEAN_MOTION,ECCENTRICITY,INCLINATION,RA_OF_ASC_NODE,ARG_OF_PERICENTER,MEAN_ANOMALY,BSTAR,MEAN_MOTION_DOT,MEAN_MOTION_DDOT,TLE_LINE0,TLE_LINE1,TLE_LINE2,SEMIMAJOR_AXIS,PERIOD,APOGEE,PERIGEE,DECAYED
53783.0,STARLINK-4536,PAYLOAD,2023-03-18 19:09:38,15.08859872,0.0001319,53.2166,113.2831,109.8848,250.2286,0.00032442,4.882e-05,0.0,0 STARLINK-4536,1 53783U 22111L   23077.79836262  .00004882  00000-0  32442-3 0  9995,2 53783  53.2166 113.2831 0001319 109.8848 250.2286 15.08859872 28808,6917.82,95.436,540.597,538.772,0.0
53783.0,STARLINK-4536,PAYLOAD,2023-03-19 11:03:29,15.08852104,0.0001434,53.2174,110.3098,107.199,252.9159,0.00018852,2.715e-05,0.0,0 STARLINK-4536,1 53783U 22111L   23078.46076000  .00002715  00000-0  18852-3 0  9998,2 53783  53.2174 110.3098 0001434 107.1990 252.9159 15.08852104 28907,6917.843,95.437,540.7,538.716,0.0
53783.0,STARLINK-4536,PAYLOAD,2023-03-19 19:00:25,15.08840005,0.0001647,53.2161,108.8222,93.4793,266.6387,7.3884e-05,8.88e-06,0.0,0 STARLINK-4536,1 53783U 22111L   23078.79196299  .00000888  00000-0  73884-4 0  9993,2 53783  53.2161 108.8222 0001647  93.4793 266.6387 15.08840005 28955,6917.88,95.438,540.885,538.606,0.0
53783.0,STARLINK-4536,PAYLOAD,2023-03-20 10:54:16,15.08846299,0.0001185,53.2161,105.8487,93.048,267.0648,0.00043287,6.609e-05,0.0,0 STARLINK-4536,1 53783U 22111L   23079.45436089  .00006609  00000-0  43287-3 0  9991,2 53783  53.2161 105.8487 0001185  93.0480 267.0648 15.08846299 29868,6917.861,95.437,540.546,538.906,0.0
53783.0,STARLINK-4536,PAYLOAD,2023-03-20 18:51:12,15.08835998,0.0001288,53.2166,104.3601,85.318,274.7959,0.00016344,2.314e-05,0.0,0 STARLINK-4536,1 53783U 22111L   23079.78556415  .00002314  00000-0  16344-3 0  9996,2 53783  53.2166 104.3601 0001288  85.3180 274.7959 15.08835998 29910,6917.893,95.438,540.649,538.867,0.0
53783.0,STARLINK-4536,PAYLOAD,2023-03-21 07:34:17,15.08841699,0.0001319,53.2172,101.9801,86.285,273.8293,0.00019755,2.858e-05,0.0,0 STARLINK-4536,1 53783U 22111L   23080.31548452  .00002858  00000-0  19755-3 0  9991,2 53783  53.2172 101.9801 0001319  86.2850 273.8293 15.08841699 29186,6917.875,95.437,540.653,538.828,0.0
53783.0,STARLINK-4536,PAYLOAD,2023-03-21 10:45:04,15.0884315,0.0001324,53.2171,101.3853,85.5676,274.5467,0.00023703,3.487e-05,0.0,0 STARLINK-4536,1 53783U 22111L   23080.44796413  .00003487  00000-0  23703-3 0  9994,2 53783  53.2171 101.3853 0001324  85.5676 274.5467 15.08843150 30019,6917.871,95.437,540.652,538.82,0.0
53783.0,STARLINK-4536,PAYLOAD,2023-03-21 18:41:59,15.08841055,0.000138,53.2167,99.9008,83.3925,276.7224,0.00014469,2.016e-05,0.0,0 STARLINK-4536,1 53783U 22111L   23080.77916608  .00002016  00000-0  14469-3 0  9996,2 53783  53.2167  99.9008 0001380  83.3925 276.7224 15.08841055 30065,6917.877,95.437,540.697,538.787,0.0
53783.0,STARLINK-4536,PAYLOAD,2023-03-22 05:49:42,15.08839701,0.0001288,53.2156,97.8186,88.2473,271.8667,0.00016676,2.367e-05,0.0,0 STARLINK-4536,1 53783U 22111L   23081.24284734  .00002367  00000-0  16676-3 0  9998,2 53783  53.2156  97.8186 0001288  88.2473 271.8667 15.08839701 29325,6917.881,95.438,540.637,538.855,0.0
53783.0,STARLINK-4536,PAYLOAD,2023-03-22 18:32:46,15.08843956,0.0001256,53.2161,95.4399,89.3087,270.8049,0.00019724,2.853e-05,0.0,0 STARLINK-4536,1 53783U 22111L   23081.77276582  .00002853  00000-0  19724-3 0  9995,2 53783  53.2161  95.4399 0001256  89.3087 270.8049 15.08843956 30219,6917.868,95.437,540.602,538.864,0.0
53783.0,STARLINK-4536,PAYLOAD,2023-03-23 07:15:51,15.08848424,0.0001251,53.2163,93.0613,90.8168,269.2967,0.00021228,3.093e-05,0.0,0 STARLINK-4536,1 53783U 22111L   23082.30268361  .00003093  00000-0  21228-3 0  9990,2 53783  53.2163  93.0613 0001251  90.8168 269.2967 15.08848424 29489,6917.855,95.437,540.585,538.854,0.0
53783.0,STARLINK-4536,PAYLOAD,2023-03-24 03:55:53,15.08846802,0.0001255,53.2164,89.1952,87.3567,272.7568,0.00037634,5.708e-05,0.0,0 STARLINK-4536,1 53783U 22111L   23083.16381301  .00005708  00000-0  37634-3 0  9998,2 53783  53.2164  89.1952 0001255  87.3567 272.7568 15.08846802 29619,6917.86,95.437,540.593,538.856,0.0
53783.0,STARLINK-4536,PAYLOAD,2023-03-24 11:52:49,15.08843022,0.0001392,53.2158,87.7077,99.3481,260.7668,0.00021855,3.192e-05,0.0,0 STARLINK-4536,1 53783U 22111L   23083.49501201  .00003192  00000-0  21855-3 0  9990,2 53783  53.2158  87.7077 0001392  99.3481 260.7668 15.08843022 30479,6917.871,95.437,540.699,538.773,0.0
53783.0,STARLINK-4536,PAYLOAD,2023-03-25 05:22:03,15.08851787,0.000149,53.2172,84.4357,102.9752,257.1406,0.00060996,9.436e-05,0.0,0 STARLINK-4536,1 53783U 22111L   23084.22365181  .00009436  00000-0  60996-3 0  9993,2 53783  53.2172  84.4357 0001490 102.9752 257.1406 15.08851787 29779,6917.844,95.437,540.74,538.679,0.0
53783.0,STARLINK-4536,PAYLOAD,2023-03-25 16:29:45,15.0883715,0.0002827,53.2176,82.3525,93.0324,267.0992,-0.00034044,-5.703e-05,0.0,0 STARLINK-4536,1 53783U 22111L   23084.68733630 -.00005703  00000-0 -34044-3 0  9991,2 53783  53.2176  82.3525 0002827  93.0324 267.0992 15.08837150 29843,6917.889,95.438,541.71,537.798,0.0
53783.0,STARLINK-4536,PAYLOAD,2023-03-26 03:37:27,15.08843378,0.0001278,53.2181,80.2726,107.9269,252.1863,1.7117e-05,-1.5e-07,0.0,0 STARLINK-4536,1 53783U 22111L   23085.15100842 -.00000015  00000-0  17117-4 0  9990,2 53783  53.2181  80.2726 0001278 107.9269 252.1863 15.08843378 29910,6917.87,95.437,540.619,538.851,0.0
53783.0,STARLINK-4536,PAYLOAD,2023-03-26 22:42:04,15.08847461,0.0001507,53.2172,76.7071,102.5538,257.5623,0.00077118,0.00012009,0.0,0 STARLINK-4536,1 53783U 22111L   23085.94589038  .00012009  00000-0  77118-3 0  9996,2 53783  53.2172  76.7071 0001507 102.5538 257.5623 15.08847461 30842,6917.858,95.437,540.765,538.68,0.0
53783.0,STARLINK-4536,PAYLOAD,2023-03-27 05:03:37,15.0884435,0.0001491,53.2183,75.5184,104.1342,255.9816,0.0006396,9.907e-05,0.0,0 STARLINK-4536,1 53783U 22111L   23086.21085088  .00009907  00000-0  63960-3 0  9996,2 53783  53.2183  75.5184 0001491 104.1342 255.9816 15.08844350 30074,6917.867,95.437,540.764,538.701,0.0
53783.0,STARLINK-4536,PAYLOAD,2023-03-27 06:39:00,15.08846013,0.0001452,53.2188,75.2212,104.8931,255.2222,0.00065554,0.00010162,0.0,0 STARLINK-4536,1 53783U 22111L   23086.27709040  .00010162  00000-0  65554-3 0  9999,2 53783  53.2188  75.2212 0001452 104.8931 255.2222 15.08846013 30898,6917.862,95.437,540.731,538.723,0.0
53783.0,STARLINK-4536,PAYLOAD,2023-03-28 06:29:47,15.08840342,0.0001277,53.2182,70.759,107.6647,252.4484,0.00010098,1.32e-05,0.0,0 STARLINK-4536,1 53783U 22111L   23087.27069100  .00001320  00000-0  10098-3 0  9995,2 53783  53.2182  70.7590 0001277 107.6647 252.4484 15.08840342 30237,6917.879,95.438,540.628,538.861,0.0
53783.0,STARLINK-4536,PAYLOAD,2023-03-28 16:02:06,15.08839722,0.0001383,53.2187,68.9761,82.6167,277.4983,9.9036e-05,1.289e-05,0.0,0 STARLINK-4536,1 53783U 22111L   23087.66813420  .00001289  00000-0  99036-4 0  9994,2 53783  53.2187  68.9761 0001383  82.6167 277.4983 15.08839722 31106,6917.881,95.438,540.703,538.789,0.0
53783.0,STARLINK-4536,PAYLOAD,2023-03-29 06:20:34,15.08848308,0.0001217,53.2181,66.2982,86.993,273.1202,0.00024517,3.617e-05,0.0,0 STARLINK-4536,1 53783U 22111L   23088.26429095  .00003617  00000-0  24517-3 0  9990,2 53783  53.2181  66.2982 0001217  86.9930 273.1202 15.08848308 31193,6917.855,95.437,540.562,538.878,0.0
53783.0,STARLINK-4536,PAYLOAD,2023-03-29 15:52:53,15.08843638,0.000126,53.218,64.5173,86.4555,273.6581,0.00018556,2.667e-05,0.0,0 STARLINK-4536,1 53783U 22111L   23088.66173262  .00002667  00000-0  18556-3 0  9996,2 53783  53.2180  64.5173 0001260  86.4555 273.6581 15.08843638 30444,6917.869,95.437,540.606,538.863,0.0
53783.0,STARLINK-4536,PAYLOAD,2023-03-30 04:35:58,15.08844936,0.0001374,53.2194,62.1391,84.031,276.0839,0.00017534,2.504e-05,0.0,0 STARLINK-4536,1 53783U 22111L   23089.19165360  .00002504  00000-0  17534-3 0  9990,2 53783  53.2194  62.1391 0001374  84.0310 276.0839 15.08844936 31338,6917.865,95.437,540.681,538.78,0.0
53783.0,STARLINK-4536,PAYLOAD,2023-03-31 04:26:45,15.08852543,9.12e-05,53.2185,57.6778,105.4523,254.657,0.0003155,4.739e-05,0.0,0 STARLINK-4536,1 53783U 22111L   23090.18525008  .00004739  00000-0  31550-3 0  9996,2 53783  53.2185  57.6778 0000912 105.4523 254.6570 15.08852543 30670,6917.842,95.437,540.338,539.076,0.0
53783.0,STARLINK-4536,PAYLOAD,2023-04-01 05:52:56,15.08842167,0.0001227,53.2189,52.9199,103.1707,256.9422,0.0001364,1.884e-05,0.0,0 STARLINK-4536,1 53783U 22111L   23091.24509544  .00001884  00000-0  13640-3 0  9999,2 53783  53.2189  52.9199 0001227 103.1707 256.9422 15.08842167 30838,6917.874,95.437,540.588,538.89,0.0
53783.0,STARLINK-4536,PAYLOAD,2023-04-01 07:28:19,15.08844772,0.0001164,53.2188,52.6208,99.9949,260.1175,0.00016805,2.388e-05,0.0,0 STARLINK-4536,1 53783U 22111L   23091.31133381  .00002388  00000-0  16805-3 0  9995,2 53783  53.2188  52.6208 0001164  99.9949 260.1175 15.08844772 31652,6917.866,95.437,540.536,538.926,0.0
53783.0,STARLINK-4536,PAYLOAD,2023-04-02 07:19:06,15.08849692,0.0001094,53.2181,48.1603,90.8673,269.2445,0.00042772,6.528e-05,0.0,0 STARLINK-4536,1 53783U 22111L   23092.30493527  .00006528  00000-0  42772-3 0  9998,2 53783  53.2181  48.1603 0001094  90.8673 269.2445 15.08849692 30992,6917.851,95.437,540.473,538.959,0.0
53783.0,STARLINK-4536,PAYLOAD,2023-04-02 21:37:35,15.0883869,0.0001412,53.2184,45.484,96.1165,263.9988,0.00010652,1.408e-05,0.0,0 STARLINK-4536,1 53783U 22111L   23092.90110041  .00001408  00000-0  10652-3 0  9995,2 53783  53.2184  45.4840 0001412  96.1165 263.9988 15.08838690 31896,6917.884,95.438,540.726,538.773,0.0
53783.0,STARLINK-4536,PAYLOAD,2023-04-03 05:34:30,15.08852602,0.0001241,53.2178,43.9972,106.3025,253.8103,0.00046502,7.123e-05,0.0,0 STARLINK-4536,1 53783U 22111L   23093.23229592  .00007123  00000-0  46502-3 0  9997,2 53783  53.2178  43.9972 0001241 106.3025 253.8103 15.08852602 31130,6917.842,95.437,540.565,538.848,0.0
